PROBA-1                 
1 26958U 01049B   26088.07811306  .00003734  00000+0  24415-3 0  9999
2 26958  97.9637  93.8224 0056340  35.1685 325.3240 15.07148060331555
CUTE-1 (CO-55)          
1 27844U 03031E   26087.74233344  .00000366  00000+0  17739-3 0  9999
2 27844  98.6773  97.3052 0010625  62.9133 297.3129 14.24281445180222
CUBESAT XI-IV (CO-57)   
1 27848U 03031J   26087.55006450  .00000301  00000+0  15152-3 0  9994
2 27848  98.6807  96.8929 0010614  79.7322 280.5053 14.23574119179900
APRIZESAT 4             
1 35684U 09041D   26088.14466800  .00000951  00000+0  12024-3 0  9999
2 35684  98.1453 161.8652 0042551 219.8236 139.9852 14.83746876899495
APRIZESAT 3             
1 35686U 09041F   26087.97507070  .00001712  00000+0  15313-3 0  9996
2 35686  98.1944 237.4213 0061333 333.1403  26.6645 14.95970629904385
PROBA-2                 
1 36037U 09059B   26087.97819277  .00000290  00000+0  78212-4 0  9999
2 36037  98.2444 272.4432 0013547 163.4714 196.6927 14.54803933869869
APRIZESAT 5             
1 37792U 11044E   26087.74218396  .00001198  00000+0  15914-3 0  9992
2 37792  98.2414  18.5335 0050974 261.7105  97.8324 14.80910849786884
APRIZESAT 6             
1 37793U 11044F   26088.21654661  .00001213  00000+0  17842-3 0  9995
2 37793  98.2404 357.0733 0042880 343.6481 168.6425 14.76795525785347
PROBA-V                 
1 39159U 13021A   26088.20490835  .00000119  00000+0  70240-4 0  9996
2 39159  98.3534  70.7852 0004530  22.7070 337.4309 14.23578957669731
APRIZESAT 7             
1 39416U 13066A   26087.84778102  .00001559  00000+0  16001-3 0  9999
2 39416  97.7628  42.2729 0037329 116.4943 244.0112 14.91344817669256
APRIZESAT 8             
1 39425U 13066K   26088.09582475  .00001217  00000+0  13800-3 0  9998
2 39425  97.8145  36.7285 0045779 187.6690 172.3832 14.87474391667765
BUGSAT-1 (TITA)         
1 40014U 14033E   26088.19344588  .00007149  00000+0  38535-3 0  9993
2 40014  98.0410 176.1271 0029723  94.3433 266.1195 15.14747739643727
SAUDISAT 4              
1 40016U 14033G   26088.17718030  .00000934  00000+0  13014-3 0  9990
2 40016  97.7454 237.1361 0044221 335.4524  24.4582 14.79423755634242
APRIZESAT 9             
1 40018U 14033J   26088.11407160  .00000942  00000+0  14541-3 0  9990
2 40018  97.8921 223.3322 0067625  97.7007 263.1888 14.74113924631769
APRIZESAT 10            
1 40019U 14033K   26087.92041818  .00000976  00000+0  16053-3 0  9990
2 40019  97.9513 216.7339 0079259 169.1829 191.1106 14.70788257630455
TECHDEMOSAT-1 (TDS-1)   
1 40076U 14037H   26087.91848946  .00011186  00000+0  65589-3 0  9996
2 40076  98.3787  72.2759 0006642 164.4639 195.6794 15.11954236636096
TECHNOSAT               
1 42829U 17042E   26087.98370548  .00004606  00000+0  33255-3 0  9992
2 42829  97.4186 248.7638 0017896  12.3109 347.8551 15.04440964474642
