[{"OBJECT_NAME":"PROBA-1","OBJECT_ID":"2001-049B","EPOCH":"2026-03-29T01:52:28.968384","MEAN_MOTION":15.0714806,"ECCENTRICITY":0.005634,"INCLINATION":97.9637,"RA_OF_ASC_NODE":93.8224,"ARG_OF_PERICENTER":35.1685,"MEAN_ANOMALY":325.324,"EPHEMERIS_TYPE":0,"CLASSIFICATION_TYPE":"U","NORAD_CAT_ID":26958,"ELEMENT_SET_NO":999,"REV_AT_EPOCH":33155,"BSTAR":0.00024415,"MEAN_MOTION_DOT":3.734e-5,"MEAN_MOTION_DDOT":0},{"OBJECT_NAME":"CUTE-1 (CO-55)","OBJECT_ID":"2003-031E","EPOCH":"2026-03-28T17:48:57.609216","MEAN_MOTION":14.24281445,"ECCENTRICITY":0.00106253,"INCLINATION":98.6773,"RA_OF_ASC_NODE":97.3052,"ARG_OF_PERICENTER":62.9133,"MEAN_ANOMALY":297.3129,"EPHEMERIS_TYPE":0,"CLASSIFICATION_TYPE":"U","NORAD_CAT_ID":27844,"ELEMENT_SET_NO":999,"REV_AT_EPOCH":18022,"BSTAR":0.00017738568,"MEAN_MOTION_DOT":3.66e-6,"MEAN_MOTION_DDOT":0},{"OBJECT_NAME":"CUBESAT XI-IV (CO-57)","OBJECT_ID":"2003-031J","EPOCH":"2026-03-28T13:12:05.572800","MEAN_MOTION":14.23574119,"ECCENTRICITY":0.0010614,"INCLINATION":98.6807,"RA_OF_ASC_NODE":96.8929,"ARG_OF_PERICENTER":79.7322,"MEAN_ANOMALY":280.5053,"EPHEMERIS_TYPE":0,"CLASSIFICATION_TYPE":"U","NORAD_CAT_ID":27848,"ELEMENT_SET_NO":999,"REV_AT_EPOCH":17990,"BSTAR":0.00015152,"MEAN_MOTION_DOT":3.01e-6,"MEAN_MOTION_DDOT":0},{"OBJECT_NAME":"APRIZESAT 4","OBJECT_ID":"2009-041D","EPOCH":"2026-03-29T03:28:19.315200","MEAN_MOTION":14.83746876,"ECCENTRICITY":0.0042551,"INCLINATION":98.1453,"RA_OF_ASC_NODE":161.8652,"ARG_OF_PERICENTER":219.8236,"MEAN_ANOMALY":139.9852,"EPHEMERIS_TYPE":0,"CLASSIFICATION_TYPE":"U","NORAD_CAT_ID":35684,"ELEMENT_SET_NO":999,"REV_AT_EPOCH":89949,"BSTAR":0.00012024,"MEAN_MOTION_DOT":9.51e-6,"MEAN_MOTION_DDOT":0},{"OBJECT_NAME":"APRIZESAT 3","OBJECT_ID":"2009-041F","EPOCH":"2026-03-28T23:24:06.108480","MEAN_MOTION":14.95970629,"ECCENTRICITY":0.0061333,"INCLINATION":98.1944,"RA_OF_ASC_NODE":237.4213,"ARG_OF_PERICENTER":333.1403,"MEAN_ANOMALY":26.6645,"EPHEMERIS_TYPE":0,"CLASSIFICATION_TYPE":"U","NORAD_CAT_ID":35686,"ELEMENT_SET_NO":999,"REV_AT_EPOCH":90438,"BSTAR":0.00015313,"MEAN_MOTION_DOT":1.712e-5,"MEAN_MOTION_DDOT":0},{"OBJECT_NAME":"PROBA-2","OBJECT_ID":"2009-059B","EPOCH":"2026-03-28T23:28:35.855328","MEAN_MOTION":14.54803933,"ECCENTRICITY":0.0013547,"INCLINATION":98.2444,"RA_OF_ASC_NODE":272.4432,"ARG_OF_PERICENTER":163.4714,"MEAN_ANOMALY":196.6927,"EPHEMERIS_TYPE":0,"CLASSIFICATION_TYPE":"U","NORAD_CAT_ID":36037,"ELEMENT_SET_NO":999,"REV_AT_EPOCH":86986,"BSTAR":7.8212e-5,"MEAN_MOTION_DOT":2.9e-6,"MEAN_MOTION_DDOT":0},{"OBJECT_NAME":"APRIZESAT 5","OBJECT_ID":"2011-044E","EPOCH":"2026-03-28T17:48:44.694144","MEAN_MOTION":14.80910849,"ECCENTRICITY":0.00509746,"INCLINATION":98.2414,"RA_OF_ASC_NODE":18.5335,"ARG_OF_PERICENTER":261.7105,"MEAN_ANOMALY":97.8324,"EPHEMERIS_TYPE":0,"CLASSIFICATION_TYPE":"U","NORAD_CAT_ID":37792,"ELEMENT_SET_NO":999,"REV_AT_EPOCH":78688,"BSTAR":0.00015913988,"MEAN_MOTION_DOT":1.198e-5,"MEAN_MOTION_DDOT":0},{"OBJECT_NAME":"APRIZESAT 6","OBJECT_ID":"2011-044F","EPOCH":"2026-03-29T05:11:49.627104","MEAN_MOTION":14.76795525,"ECCENTRICITY":0.004288,"INCLINATION":98.2404,"RA_OF_ASC_NODE":357.0733,"ARG_OF_PERICENTER":343.6481,"MEAN_ANOMALY":168.6425,"EPHEMERIS_TYPE":0,"CLASSIFICATION_TYPE":"U","NORAD_CAT_ID":37793,"ELEMENT_SET_NO":999,"REV_AT_EPOCH":78534,"BSTAR":0.00017842,"MEAN_MOTION_DOT":1.213e-5,"MEAN_MOTION_DDOT":0},{"OBJECT_NAME":"PROBA-V","OBJECT_ID":"2013-021A","EPOCH":"2026-03-29T04:55:04.081440","MEAN_MOTION":14.23578957,"ECCENTRICITY":0.000453,"INCLINATION":98.3534,"RA_OF_ASC_NODE":70.7852,"ARG_OF_PERICENTER":22.707,"MEAN_ANOMALY":337.4309,"EPHEMERIS_TYPE":0,"CLASSIFICATION_TYPE":"U","NORAD_CAT_ID":39159,"ELEMENT_SET_NO":999,"REV_AT_EPOCH":66973,"BSTAR":7.024e-5,"MEAN_MOTION_DOT":1.19e-6,"MEAN_MOTION_DDOT":0},{"OBJECT_NAME":"APRIZESAT 7","OBJECT_ID":"2013-066A","EPOCH":"2026-03-28T20:20:48.280128","MEAN_MOTION":14.91344817,"ECCENTRICITY":0.00373296,"INCLINATION":97.7628,"RA_OF_ASC_NODE":42.2729,"ARG_OF_PERICENTER":116.4943,"MEAN_ANOMALY":244.0112,"EPHEMERIS_TYPE":0,"CLASSIFICATION_TYPE":"U","NORAD_CAT_ID":39416,"ELEMENT_SET_NO":999,"REV_AT_EPOCH":66925,"BSTAR":0.00016000921,"MEAN_MOTION_DOT":1.559e-5,"MEAN_MOTION_DDOT":0},{"OBJECT_NAME":"APRIZESAT 8","OBJECT_ID":"2013-066K","EPOCH":"2026-03-29T02:17:59.258400","MEAN_MOTION":14.87474391,"ECCENTRICITY":0.0045779,"INCLINATION":97.8145,"RA_OF_ASC_NODE":36.7285,"ARG_OF_PERICENTER":187.669,"MEAN_ANOMALY":172.3832,"EPHEMERIS_TYPE":0,"CLASSIFICATION_TYPE":"U","NORAD_CAT_ID":39425,"ELEMENT_SET_NO":999,"REV_AT_EPOCH":66776,"BSTAR":0.000138,"MEAN_MOTION_DOT":1.217e-5,"MEAN_MOTION_DDOT":0},{"OBJECT_NAME":"BUGSAT-1 (TITA)","OBJECT_ID":"2014-033E","EPOCH":"2026-03-29T04:38:33.724032","MEAN_MOTION":15.14747739,"ECCENTRICITY":0.0029723,"INCLINATION":98.041,"RA_OF_ASC_NODE":176.1271,"ARG_OF_PERICENTER":94.3433,"MEAN_ANOMALY":266.1195,"EPHEMERIS_TYPE":0,"CLASSIFICATION_TYPE":"U","NORAD_CAT_ID":40014,"ELEMENT_SET_NO":999,"REV_AT_EPOCH":64372,"BSTAR":0.00038535,"MEAN_MOTION_DOT":7.149e-5,"MEAN_MOTION_DDOT":0},{"OBJECT_NAME":"SAUDISAT 4","OBJECT_ID":"2014-033G","EPOCH":"2026-03-29T04:15:08.377920","MEAN_MOTION":14.79423755,"ECCENTRICITY":0.0044221,"INCLINATION":97.7454,"RA_OF_ASC_NODE":237.1361,"ARG_OF_PERICENTER":335.4524,"MEAN_ANOMALY":24.4582,"EPHEMERIS_TYPE":0,"CLASSIFICATION_TYPE":"U","NORAD_CAT_ID":40016,"ELEMENT_SET_NO":999,"REV_AT_EPOCH":63424,"BSTAR":0.00013014,"MEAN_MOTION_DOT":9.34e-6,"MEAN_MOTION_DDOT":0},{"OBJECT_NAME":"APRIZESAT 9","OBJECT_ID":"2014-033J","EPOCH":"2026-03-29T02:44:15.786240","MEAN_MOTION":14.74113924,"ECCENTRICITY":0.0067625,"INCLINATION":97.8921,"RA_OF_ASC_NODE":223.3322,"ARG_OF_PERICENTER":97.7007,"MEAN_ANOMALY":263.1888,"EPHEMERIS_TYPE":0,"CLASSIFICATION_TYPE":"U","NORAD_CAT_ID":40018,"ELEMENT_SET_NO":999,"REV_AT_EPOCH":63176,"BSTAR":0.00014541,"MEAN_MOTION_DOT":9.42e-6,"MEAN_MOTION_DDOT":0},{"OBJECT_NAME":"APRIZESAT 10","OBJECT_ID":"2014-033K","EPOCH":"2026-03-28T22:05:24.130752","MEAN_MOTION":14.70788257,"ECCENTRICITY":0.0079259,"INCLINATION":97.9513,"RA_OF_ASC_NODE":216.7339,"ARG_OF_PERICENTER":169.1829,"MEAN_ANOMALY":191.1106,"EPHEMERIS_TYPE":0,"CLASSIFICATION_TYPE":"U","NORAD_CAT_ID":40019,"ELEMENT_SET_NO":999,"REV_AT_EPOCH":63045,"BSTAR":0.00016053,"MEAN_MOTION_DOT":9.76e-6,"MEAN_MOTION_DDOT":0},{"OBJECT_NAME":"TECHDEMOSAT-1 (TDS-1)","OBJECT_ID":"2014-037H","EPOCH":"2026-03-28T22:02:37.489344","MEAN_MOTION":15.11954236,"ECCENTRICITY":0.0006642,"INCLINATION":98.3787,"RA_OF_ASC_NODE":72.2759,"ARG_OF_PERICENTER":164.4639,"MEAN_ANOMALY":195.6794,"EPHEMERIS_TYPE":0,"CLASSIFICATION_TYPE":"U","NORAD_CAT_ID":40076,"ELEMENT_SET_NO":999,"REV_AT_EPOCH":63609,"BSTAR":0.00065589,"MEAN_MOTION_DOT":0.00011186,"MEAN_MOTION_DDOT":0},{"OBJECT_NAME":"TECHNOSAT","OBJECT_ID":"2017-042E","EPOCH":"2026-03-28T23:36:32.153472","MEAN_MOTION":15.04440964,"ECCENTRICITY":0.0017896,"INCLINATION":97.4186,"RA_OF_ASC_NODE":248.7638,"ARG_OF_PERICENTER":12.3109,"MEAN_ANOMALY":347.8551,"EPHEMERIS_TYPE":0,"CLASSIFICATION_TYPE":"U","NORAD_CAT_ID":42829,"ELEMENT_SET_NO":999,"REV_AT_EPOCH":47464,"BSTAR":0.00033255,"MEAN_MOTION_DOT":4.606e-5,"MEAN_MOTION_DDOT":0}]
